ITAMSAT (IO-26)         
1 22826U 93061D   17345.90514649  .00000003  00000-0  18866-4 0  9993
2 22826  98.8319 313.9520 0009250 156.6547 203.5056 14.30346368262732
